{
  "type": "FeatureCollection",
  "features": [
    {
      "type": "Feature",
      "properties": {
        "norad_id": 33939,
        "name": "COSMOS 2251 DEB",
        "group": "cosmos-2251-debris",
        "lat": 65.32347631332084,
        "lon": 139.09991709120388,
        "alt_km": 563.1533647277956,
        "timestamp": "2025-12-02T23:34:15.910244+00:00",
        "meta_object_name": "COSMOS 2251 DEB",
        "meta_object_id": "1993-036EU",
        "meta_epoch": "2025-12-02T10:26:16.954080",
        "meta_mean_motion": 14.98551631,
        "meta_eccentricity": 0.0003328,
        "meta_inclination": 74.0065,
        "meta_ra_of_asc_node": 101.583,
        "meta_arg_of_pericenter": 127.34,
        "meta_mean_anomaly": 232.8089,
        "meta_ephemeris_type": 0,
        "meta_classification_type": "U",
        "meta_norad_cat_id": 33939,
        "meta_element_set_no": 999,
        "meta_rev_at_epoch": 88598,
        "meta_bstar": 0.0042054,
        "meta_mean_motion_dot": 0.00050719,
        "meta_mean_motion_ddot": 0,
        "tle_line1": "1 33939U 93036EU  25336.43491845  .00050719  00000+0  42054-2 0  9993",
        "tle_line2": "2 33939  74.0065 101.5830 0003328 127.3400 232.8089 14.98551631885985"
      },
      "geometry": {
        "type": "Point",
        "coordinates": [
          139.09991709120388,
          65.32347631332084
        ]
      }
    },
    {
      "type": "Feature",
      "properties": {
        "norad_id": 33940,
        "name": "COSMOS 2251 DEB",
        "group": "cosmos-2251-debris",
        "lat": -5.068129418741106,
        "lon": -16.4718249195186,
        "alt_km": 696.1606039832659,
        "timestamp": "2025-12-02T23:34:15.910254+00:00",
        "meta_object_name": "COSMOS 2251 DEB",
        "meta_object_id": "1993-036EV",
        "meta_epoch": "2025-12-01T22:21:22.107168",
        "meta_mean_motion": 14.58623365,
        "meta_eccentricity": 0.00117714,
        "meta_inclination": 74.0387,
        "meta_ra_of_asc_node": 164.0729,
        "meta_arg_of_pericenter": 243.1066,
        "meta_mean_anomaly": 187.5388,
        "meta_ephemeris_type": 0,
        "meta_classification_type": "U",
        "meta_norad_cat_id": 33940,
        "meta_element_set_no": 999,
        "meta_rev_at_epoch": 88436,
        "meta_bstar": 0.0011139104,
        "meta_mean_motion_dot": 5.167e-05,
        "meta_mean_motion_ddot": 0,
        "tle_line1": "1 33940U 93036EV  25335.93150587  .00005167  00000+0  11139-2 0  9991",
        "tle_line2": "2 33940  74.0387 164.0729 0011771 243.1066 187.5388 14.58623365884360"
      },
      "geometry": {
        "type": "Point",
        "coordinates": [
          -16.4718249195186,
          -5.068129418741106
        ]
      }
    },
    {
      "type": "Feature",
      "properties": {
        "norad_id": 33942,
        "name": "COSMOS 2251 DEB",
        "group": "cosmos-2251-debris",
        "lat": 29.072530900358718,
        "lon": -58.04349855872843,
        "alt_km": 749.6237823683396,
        "timestamp": "2025-12-02T23:34:15.910264+00:00",
        "meta_object_name": "COSMOS 2251 DEB",
        "meta_object_id": "1993-036EX",
        "meta_epoch": "2025-12-02T08:58:27.342048",
        "meta_mean_motion": 14.37962429,
        "meta_eccentricity": 0.0019844,
        "meta_inclination": 74.0361,
        "meta_ra_of_asc_node": 293.9189,
        "meta_arg_of_pericenter": 19.5967,
        "meta_mean_anomaly": 103.6246,
        "meta_ephemeris_type": 0,
        "meta_classification_type": "U",
        "meta_norad_cat_id": 33942,
        "meta_element_set_no": 999,
        "meta_rev_at_epoch": 87985,
        "meta_bstar": 0.00033833,
        "meta_mean_motion_dot": 9.99e-06,
        "meta_mean_motion_ddot": 0,
        "tle_line1": "1 33942U 93036EX  25336.37392757  .00000999  00000+0  33833-3 0  9993",
        "tle_line2": "2 33942  74.0361 293.9189 0019844  19.5967 103.6246 14.37962429879854"
      },
      "geometry": {
        "type": "Point",
        "coordinates": [
          -58.04349855872843,
          29.072530900358718
        ]
      }
    },
    {
      "type": "Feature",
      "properties": {
        "norad_id": 33944,
        "name": "COSMOS 2251 DEB",
        "group": "cosmos-2251-debris",
        "lat": -66.91961251316698,
        "lon": -75.30905690315589,
        "alt_km": 837.109023786702,
        "timestamp": "2025-12-02T23:34:15.910275+00:00",
        "meta_object_name": "COSMOS 2251 DEB",
        "meta_object_id": "1993-036EZ",
        "meta_epoch": "2025-12-02T09:35:38.304096",
        "meta_mean_motion": 14.37308317,
        "meta_eccentricity": 0.011191,
        "meta_inclination": 74.04,
        "meta_ra_of_asc_node": 327.9499,
        "meta_arg_of_pericenter": 70.2867,
        "meta_mean_anomaly": 85.2273,
        "meta_ephemeris_type": 0,
        "meta_classification_type": "U",
        "meta_norad_cat_id": 33944,
        "meta_element_set_no": 999,
        "meta_rev_at_epoch": 87879,
        "meta_bstar": 0.0003712,
        "meta_mean_motion_dot": 1.163e-05,
        "meta_mean_motion_ddot": 0,
        "tle_line1": "1 33944U 93036EZ  25336.39974889  .00001163  00000+0  37120-3 0  9996",
        "tle_line2": "2 33944  74.0400 327.9499 0111910  70.2867  85.2273 14.37308317878799"
      },
      "geometry": {
        "type": "Point",
        "coordinates": [
          -75.30905690315589,
          -66.91961251316698
        ]
      }
    },
    {
      "type": "Feature",
      "properties": {
        "norad_id": 33945,
        "name": "COSMOS 2251 DEB",
        "group": "cosmos-2251-debris",
        "lat": 3.147266781945394,
        "lon": 143.24567139292714,
        "alt_km": 787.0107879932748,
        "timestamp": "2025-12-02T23:34:15.910285+00:00",
        "meta_object_name": "COSMOS 2251 DEB",
        "meta_object_id": "1993-036FA",
        "meta_epoch": "2025-12-02T09:21:48.393216",
        "meta_mean_motion": 14.34586902,
        "meta_eccentricity": 0.0021544,
        "meta_inclination": 74.0293,
        "meta_ra_of_asc_node": 325.2322,
        "meta_arg_of_pericenter": 54.7887,
        "meta_mean_anomaly": 305.5277,
        "meta_ephemeris_type": 0,
        "meta_classification_type": "U",
        "meta_norad_cat_id": 33945,
        "meta_element_set_no": 999,
        "meta_rev_at_epoch": 87867,
        "meta_bstar": 0.000182,
        "meta_mean_motion_dot": 4.89e-06,
        "meta_mean_motion_ddot": 0,
        "tle_line1": "1 33945U 93036FA  25336.39014344  .00000489  00000+0  18200-3 0  9996",
        "tle_line2": "2 33945  74.0293 325.2322 0021544  54.7887 305.5277 14.34586902878672"
      },
      "geometry": {
        "type": "Point",
        "coordinates": [
          143.24567139292714,
          3.147266781945394
        ]
      }
    },
    {
      "type": "Feature",
      "properties": {
        "norad_id": 33948,
        "name": "COSMOS 2251 DEB",
        "group": "cosmos-2251-debris",
        "lat": -10.516668287947567,
        "lon": -40.00802430059593,
        "alt_km": 767.2002898685205,
        "timestamp": "2025-12-02T23:34:15.910294+00:00",
        "meta_object_name": "COSMOS 2251 DEB",
        "meta_object_id": "1993-036FD",
        "meta_epoch": "2025-12-02T10:14:32.292960",
        "meta_mean_motion": 14.3560902,
        "meta_eccentricity": 0.0022302,
        "meta_inclination": 74.0351,
        "meta_ra_of_asc_node": 324.0568,
        "meta_arg_of_pericenter": 42.9104,
        "meta_mean_anomaly": 317.3784,
        "meta_ephemeris_type": 0,
        "meta_classification_type": "U",
        "meta_norad_cat_id": 33948,
        "meta_element_set_no": 999,
        "meta_rev_at_epoch": 87875,
        "meta_bstar": 0.00026218,
        "meta_mean_motion_dot": 7.32e-06,
        "meta_mean_motion_ddot": 0,
        "tle_line1": "1 33948U 93036FD  25336.42676265  .00000732  00000+0  26218-3 0  9998",
        "tle_line2": "2 33948  74.0351 324.0568 0022302  42.9104 317.3784 14.35609020878754"
      },
      "geometry": {
        "type": "Point",
        "coordinates": [
          -40.00802430059593,
          -10.516668287947567
        ]
      }
    },
    {
      "type": "Feature",
      "properties": {
        "norad_id": 33971,
        "name": "COSMOS 2251 DEB",
        "group": "cosmos-2251-debris",
        "lat": -73.66436018691422,
        "lon": -166.0212661918677,
        "alt_km": 768.8529957194341,
        "timestamp": "2025-12-02T23:34:15.910305+00:00",
        "meta_object_name": "COSMOS 2251 DEB",
        "meta_object_id": "1993-036FE",
        "meta_epoch": "2025-12-02T06:08:11.673024",
        "meta_mean_motion": 14.39691771,
        "meta_eccentricity": 0.0018044,
        "meta_inclination": 74.0248,
        "meta_ra_of_asc_node": 273.108,
        "meta_arg_of_pericenter": 15.6945,
        "meta_mean_anomaly": 94.3946,
        "meta_ephemeris_type": 0,
        "meta_classification_type": "U",
        "meta_norad_cat_id": 33971,
        "meta_element_set_no": 999,
        "meta_rev_at_epoch": 87988,
        "meta_bstar": 0.00043436,
        "meta_mean_motion_dot": 1.336e-05,
        "meta_mean_motion_ddot": 0,
        "tle_line1": "1 33971U 93036FE  25336.25569066  .00001336  00000+0  43436-3 0  9997",
        "tle_line2": "2 33971  74.0248 273.1080 0018044  15.6945  94.3946 14.39691771879881"
      },
      "geometry": {
        "type": "Point",
        "coordinates": [
          -166.0212661918677,
          -73.66436018691422
        ]
      }
    }
  ]
}